#aV2008  6  8  0  0   .00000000      96 DD+AD WGS84 FIT  NGA
## 1483       .00000000   900.00000000 54625  .0000000000000
+   31     2  3  4  5  6  7  8  9 10 11 12 13 14 15 16 17 18
+         19 20 21 22 23 24 25 26 27 28 29 30 31 32  0  0  0
+          0  0  0  0  0  0  0  0  0  0  0  0  0  0  0  0  0
+          0  0  0  0  0  0  0  0  0  0  0  0  0  0  0  0  0
+          0  0  0  0  0  0  0  0  0  0  0  0  0  0  0  0  0
++         0  0  0  0  0  0  0  0  0  0  0  0  0  0  0  0  0
++         0  0  0  0  0  0  0  0  0  0  0  0  0  0  0  0  0
++         0  0  0  0  0  0  0  0  0  0  0  0  0  0  0  0  0
++         0  0  0  0  0  0  0  0  0  0  0  0  0  0  0  0  0
++         0  0  0  0  0  0  0  0  0  0  0  0  0  0  0  0  0
%c cc cc ccc ccc cccc cccc cccc cccc ccccc ccccc ccccc ccccc
%c cc cc ccc ccc cccc cccc cccc cccc ccccc ccccc ccccc ccccc
%f  0.0000000  0.000000000  0.00000000000  0.000000000000000
%f  0.0000000  0.000000000  0.00000000000  0.000000000000000
%i    0    0    0    0      0      0      0      0         0
%i    0    0    0    0      0      0      0      0         0
/*      NGA, ST. LOUIS,MO.                                  
/*   EPHEMERIS COMPUTED FROM  3 DAYS OF DATA                
/* CCCCCCCCCCCCCCCCCCCCCCCCCCCCCCCCCCCCCCCCCCCCCCCCCCCCCCCCC
/* CCCCCCCCCCCCCCCCCCCCCCCCCCCCCCCCCCCCCCCCCCCCCCCCCCCCCCCCC
*  2008  6  8 16 45   .00000000                                                 
P  2  13169.302316  17398.810195 -15538.546158    206.130261                    
V  2    -17.489662  19469.141579  21648.382848       .001548                    
P  3 -24060.230415 -11109.815080  -3908.778767    239.387080                    
V  3   5508.092420  -1888.170040 -30206.818272       .052063                    
P  4   7081.401018  24504.152914  -6798.410778    -86.198162                    
V  4  -2740.042674   8886.116371  29954.880664      -.090348                    
P  5  21249.905323 -15461.017436   2985.047070   -396.056585                    
V  5   -850.209296   5362.143698  31141.377789       .089904                    
P  6 -20916.796786 -14454.206548  -7441.037309    144.389138                    
V  6  10359.979527    409.718970 -29180.483801       .067259                    
P  7  -8427.321477  20329.970966 -14847.308436    -25.003834                    
V  7  -3853.538770 -18544.693226 -23318.247862       .076575                    
P  8  -1308.272227  26027.301889  -3641.777173   -156.567654                    
V  8  -2637.503844  -4463.394539 -32129.650407      -.016695                    
P  9  13998.097980  -5181.971485  21324.995772-999999.999999              E     
V  9   4203.544455  28274.800536   4146.161631       .014681                    
P 10  17296.309430   4897.960115 -19794.821444     -2.085362                    
V 10 -19932.779136  14665.864636 -13564.637009      -.002361                    
P 11 -14452.142575   8852.190717  20256.710172     24.869711                    
V 11  -8467.520605 -25066.906614   5208.732667      -.004113                    
P 12  23303.046155 -10499.493792   7121.153719   -358.711343                    
V 12  -5766.494225   7328.753932  30146.186088       .003424                    
P 13 -10132.520291  10919.872190 -22106.956892    258.931563                    
V 13 -24512.005646 -12880.834783   4917.272748       .016141                    
P 14  -7720.715734 -17447.622852  18620.692805   -257.715373                    
V 14  21365.199378   9432.009708  17692.147472       .042840                    
P 15  25018.303522   5801.360182   6813.170014   -123.515484                    
V 15   6773.148002   6020.359384 -30074.285615      -.059821                    
P 16 -12881.270829  -9059.979153 -21343.328396    122.031062                    
V 16  22182.279027 -15787.787477  -6463.761251      -.015175                    
P 17   8046.410953  17812.236535  18100.698228     38.691063                    
V 17 -21307.443774  -8367.553671  17588.417603      -.001985                    
P 18  15220.022084 -18990.738244  10368.159526   -169.572191                    
V 18  12581.398264  -4633.752133 -27795.447903       .040416                    
P 19 -24513.237572  -6901.059391   7967.645484     31.588623                    
V 19  -7526.258439  -7002.691678 -29357.016600       .007236                    
P 20 -22905.744175  12285.755738   5236.263631    112.569773                    
V 20   3570.903565  -6632.088904  30534.530351      -.008300                    
P 21   5679.692487 -23541.652509  -9970.913338     61.874739                    
V 21   4627.277654  12891.503643 -27896.367051      -.011885                    
P 22   2412.998375 -18216.815464  19311.210049    211.370145                    
V 22  21137.070309 -12010.706639 -14138.568940      -.000849                    
P 23 -20777.116783   2874.242514 -16512.020151    358.258014                    
V 23 -18204.176828  -9988.477885  21014.130407       .020481                    
P 24  13023.687571 -12931.262012 -19128.168258    100.248386                    
V 24   2420.258255  24496.037192 -14510.655385       .029731                    
P 25 -10592.142377  14773.707797 -19069.131298   -200.824749                    
V 25  -5972.115411 -24217.019291 -14984.856815       .815338                    
P 26  24494.834699  10520.446680   2760.073309    270.002413                    
V 26   2985.868671   3055.920148 -31848.467998       .075198                    
P 27  -5331.262639  22233.629370 -12726.892269    194.162399                    
V 27  -5009.646419 -16720.862245 -25899.531093       .026889                    
P 28  -4009.193418  18503.376160  18876.807105    -19.835868                    
V 28 -20135.095022  11781.488596 -16484.629064      -.005133                    
P 29  13614.639907  -9491.100895 -20609.403922    -42.612748                    
V 29  23449.037698  12285.342766   9804.740203       .003088                    
P 30  18297.634906 -18630.498103  -4886.236012     80.205689                    
V 30   6525.627244  -1065.176909  30740.278923       .017917                    
P 31  -7863.857835 -23977.261313  -7905.826589    -22.742211                    
V 31   1499.218242 -10538.074364  29815.278840      -.013305                    
P 32 -21594.725885    214.465323  15785.868907    295.371912                    
V 32  15706.952725 -11376.267275  22416.445887       .044151                    
EOF
